{"type": "FeatureCollection", "features": [ {"type": "Feature", "properties": {"norad_id": 29808, "name": "FENGYUN 1C DEB", "group": "fengyun-1c-debris", "lat": 20.454191532319843, "lon": -86.67666100180905, "alt_km": 475.7223383401706, "timestamp": "2025-12-22T09:53:37.673086+00:00", "meta": {"OBJECT_NAME": "FENGYUN 1C DEB", "OBJECT_ID": "1999-025DA", "EPOCH": "2025-12-21T18:19:01.051968", "MEAN_MOTION": 15.27256896, "ECCENTRICITY": 0.0020195, "INCLINATION": 99.0124, "RA_OF_ASC_NODE": 275.9339, "ARG_OF_PERICENTER": 82.5253, "MEAN_ANOMALY": 331.726, "EPHEMERIS_TYPE": 0, "CLASSIFICATION_TYPE": "U", "NORAD_CAT_ID": 29808, "ELEMENT_SET_NO": 999, "REV_AT_EPOCH": 98363, "BSTAR": 0.012253, "MEAN_MOTION_DOT": 0.00344013, "MEAN_MOTION_DDOT": 0}, "tle": {"line1": "1 29808U 99025DA  25355.76320662  .00344013  00000+0  12253-1 0  9992", "line2": "2 29808  99.0124 275.9339 0020195  82.5253 331.7260 15.27256896983636"}}, "geometry": {"type": "Point", "coordinates": [-86.67666100180905, 20.454191532319843]}}, {"type": "Feature", "properties": {"norad_id": 29809, "name": "FENGYUN 1C DEB", "group": "fengyun-1c-debris", "lat": 80.07183721937518, "lon": -156.57029583391972, "alt_km": 785.4123925117929, "timestamp": "2025-12-22T09:53:37.673095+00:00", "meta": {"OBJECT_NAME": "FENGYUN 1C DEB", "OBJECT_ID": "1999-025DB", "EPOCH": "2025-12-21T20:18:55.943712", "MEAN_MOTION": 14.46614629, "ECCENTRICITY": 0.0115583, "INCLINATION": 98.8613, "RA_OF_ASC_NODE": 319.8029, "ARG_OF_PERICENTER": 322.6713, "MEAN_ANOMALY": 66.1552, "EPHEMERIS_TYPE": 0, "CLASSIFICATION_TYPE": "U", "NORAD_CAT_ID": 29809, "ELEMENT_SET_NO": 999, "REV_AT_EPOCH": 99599, "BSTAR": 0.00027854, "MEAN_MOTION_DOT": 1.037e-05, "MEAN_MOTION_DDOT": 0}, "tle": {"line1": "1 29809U 99025DB  25355.84648083  .00001037  00000+0  27854-3 0  9993", "line2": "2 29809  98.8613 319.8029 0115583 322.6713  66.1552 14.46614629995993"}}, "geometry": {"type": "Point", "coordinates": [-156.57029583391972, 80.07183721937518]}}, {"type": "Feature", "properties": {"norad_id": 29810, "name": "FENGYUN 1C DEB", "group": "fengyun-1c-debris", "lat": -48.35148982000191, "lon": -156.7336165224805, "alt_km": 826.4382441586258, "timestamp": "2025-12-22T09:53:37.673105+00:00", "meta": {"OBJECT_NAME": "FENGYUN 1C DEB", "OBJECT_ID": "1999-025DC", "EPOCH": "2025-12-22T02:21:10.109088", "MEAN_MOTION": 14.29142454, "ECCENTRICITY": 0.0066486, "INCLINATION": 99.2055, "RA_OF_ASC_NODE": 33.441, "ARG_OF_PERICENTER": 352.0248, "MEAN_ANOMALY": 62.0728, "EPHEMERIS_TYPE": 0, "CLASSIFICATION_TYPE": "U", "NORAD_CAT_ID": 29810, "ELEMENT_SET_NO": 999, "REV_AT_EPOCH": 98511, "BSTAR": 0.00023982, "MEAN_MOTION_DOT": 5.74e-06, "MEAN_MOTION_DDOT": 0}, "tle": {"line1": "1 29810U 99025DC  25356.09803367  .00000574  00000+0  23982-3 0  9994", "line2": "2 29810  99.2055  33.4410 0066486 352.0248  62.0728 14.29142454985116"}}, "geometry": {"type": "Point", "coordinates": [-156.7336165224805, -48.35148982000191]}}, {"type": "Feature", "properties": {"norad_id": 29812, "name": "FENGYUN 1C DEB", "group": "fengyun-1c-debris", "lat": -61.30851507789354, "lon": -11.118270612794444, "alt_km": 837.7198312331466, "timestamp": "2025-12-22T09:53:37.673115+00:00", "meta": {"OBJECT_NAME": "FENGYUN 1C DEB", "OBJECT_ID": "1999-025DE", "EPOCH": "2025-12-19T19:08:47.973408", "MEAN_MOTION": 14.02010991, "ECCENTRICITY": 0.01438745, "INCLINATION": 98.3491, "RA_OF_ASC_NODE": 182.0506, "ARG_OF_PERICENTER": 307.933, "MEAN_ANOMALY": 67.3826, "EPHEMERIS_TYPE": 0, "CLASSIFICATION_TYPE": "U", "NORAD_CAT_ID": 29812, "ELEMENT_SET_NO": 999, "REV_AT_EPOCH": 96271, "BSTAR": 0.00079236454, "MEAN_MOTION_DOT": 1.283e-05, "MEAN_MOTION_DDOT": 0}, "tle": {"line1": "1 29812U 99025DE  25353.79777747  .00001283  00000+0  79236-3 0  9993", "line2": "2 29812  98.3491 182.0506 0143874 307.9330  67.3826 14.02010991962716"}}, "geometry": {"type": "Point", "coordinates": [-11.118270612794444, -61.30851507789354]}}, {"type": "Feature", "properties": {"norad_id": 29813, "name": "FENGYUN 1C DEB", "group": "fengyun-1c-debris", "lat": 46.47845256701875, "lon": -154.71982194473395, "alt_km": 852.7953702154218, "timestamp": "2025-12-22T09:53:37.673125+00:00", "meta": {"OBJECT_NAME": "FENGYUN 1C DEB", "OBJECT_ID": "1999-025DF", "EPOCH": "2025-12-22T01:00:45.521856", "MEAN_MOTION": 14.09453835, "ECCENTRICITY": 0.0012266, "INCLINATION": 98.7265, "RA_OF_ASC_NODE": 15.6143, "ARG_OF_PERICENTER": 194.7094, "MEAN_ANOMALY": 221.5598, "EPHEMERIS_TYPE": 0, "CLASSIFICATION_TYPE": "U", "NORAD_CAT_ID": 29813, "ELEMENT_SET_NO": 999, "REV_AT_EPOCH": 97391, "BSTAR": 1.9877e-05, "MEAN_MOTION_DOT": -8e-08, "MEAN_MOTION_DDOT": 0}, "tle": {"line1": "1 29813U 99025DF  25356.04219354 -.00000008  00000+0  19877-4 0  9991", "line2": "2 29813  98.7265  15.6143 0012266 194.7094 221.5598 14.09453835973916"}}, "geometry": {"type": "Point", "coordinates": [-154.71982194473395, 46.47845256701875]}}, {"type": "Feature", "properties": {"norad_id": 29815, "name": "FENGYUN 1C DEB", "group": "fengyun-1c-debris", "lat": -19.35001044871547, "lon": -178.13575302262836, "alt_km": 694.044246335453, "timestamp": "2025-12-22T09:53:37.673135+00:00", "meta": {"OBJECT_NAME": "FENGYUN 1C DEB", "OBJECT_ID": "1999-025DH", "EPOCH": "2025-12-21T23:09:39.106080", "MEAN_MOTION": 14.63768362, "ECCENTRICITY": 0.0184195, "INCLINATION": 98.0555, "RA_OF_ASC_NODE": 4.2776, "ARG_OF_PERICENTER": 106.3122, "MEAN_ANOMALY": 255.8425, "EPHEMERIS_TYPE": 0, "CLASSIFICATION_TYPE": "U", "NORAD_CAT_ID": 29815, "ELEMENT_SET_NO": 999, "REV_AT_EPOCH": 99990, "BSTAR": 0.00047395, "MEAN_MOTION_DOT": 3.11e-05, "MEAN_MOTION_DDOT": 0}, "tle": {"line1": "1 29815U 99025DH  25355.96503595  .00003110  00000+0  47395-3 0  9997", "line2": "2 29815  98.0555   4.2776 0184195 106.3122 255.8425 14.63768362999901"}}, "geometry": {"type": "Point", "coordinates": [-178.13575302262836, -19.35001044871547]}}, {"type": "Feature", "properties": {"norad_id": 29816, "name": "FENGYUN 1C DEB", "group": "fengyun-1c-debris", "lat": 46.36267970703394, "lon": -152.58421669920438, "alt_km": 768.7368054901644, "timestamp": "2025-12-22T09:53:37.673145+00:00", "meta": {"OBJECT_NAME": "FENGYUN 1C DEB", "OBJECT_ID": "1999-025DJ", "EPOCH": "2025-12-22T02:03:31.214016", "MEAN_MOTION": 14.4437628, "ECCENTRICITY": 0.0237915, "INCLINATION": 98.9922, "RA_OF_ASC_NODE": 216.6295, "ARG_OF_PERICENTER": 149.2733, "MEAN_ANOMALY": 4.0407, "EPHEMERIS_TYPE": 0, "CLASSIFICATION_TYPE": "U", "NORAD_CAT_ID": 29816, "ELEMENT_SET_NO": 999, "REV_AT_EPOCH": 98322, "BSTAR": 0.00086195, "MEAN_MOTION_DOT": 4.144e-05, "MEAN_MOTION_DDOT": 0}, "tle": {"line1": "1 29816U 99025DJ  25356.08577794  .00004144  00000+0  86195-3 0  9993", "line2": "2 29816  98.9922 216.6295 0237915 149.2733   4.0407 14.44376280983222"}}, "geometry": {"type": "Point", "coordinates": [-152.58421669920438, 46.36267970703394]}}, {"type": "Feature", "properties": {"norad_id": 29817, "name": "FENGYUN 1C DEB", "group": "fengyun-1c-debris", "lat": 22.744166474600455, "lon": -18.41411121892125, "alt_km": 837.3874328000848, "timestamp": "2025-12-22T09:53:37.673154+00:00", "meta": {"OBJECT_NAME": "FENGYUN 1C DEB", "OBJECT_ID": "1999-025DK", "EPOCH": "2025-12-21T22:12:45.085248", "MEAN_MOTION": 14.14263639, "ECCENTRICITY": 0.0011785, "INCLINATION": 98.558, "RA_OF_ASC_NODE": 344.7389, "ARG_OF_PERICENTER": 349.6979, "MEAN_ANOMALY": 76.6783, "EPHEMERIS_TYPE": 0, "CLASSIFICATION_TYPE": "U", "NORAD_CAT_ID": 29817, "ELEMENT_SET_NO": 999, "REV_AT_EPOCH": 97525, "BSTAR": 0.00029243, "MEAN_MOTION_DOT": 5.17e-06, "MEAN_MOTION_DDOT": 0}, "tle": {"line1": "1 29817U 99025DK  25355.92552182  .00000517  00000+0  29243-3 0  9991", "line2": "2 29817  98.5580 344.7389 0011785 349.6979  76.6783 14.14263639975255"}}, "geometry": {"type": "Point", "coordinates": [-18.41411121892125, 22.744166474600455]}}, {"type": "Feature", "properties": {"norad_id": 29818, "name": "FENGYUN 1C DEB", "group": "fengyun-1c-debris", "lat": 39.50330506051934, "lon": 60.619231244708615, "alt_km": 939.5844414893836, "timestamp": "2025-12-22T09:53:37.673165+00:00", "meta": {"OBJECT_NAME": "FENGYUN 1C DEB", "OBJECT_ID": "1999-025DL", "EPOCH": "2025-12-22T04:41:30.493248", "MEAN_MOTION": 14.04507878, "ECCENTRICITY": 0.0114753, "INCLINATION": 98.7207, "RA_OF_ASC_NODE": 233.1413, "ARG_OF_PERICENTER": 359.3512, "MEAN_ANOMALY": 124.3481, "EPHEMERIS_TYPE": 0, "CLASSIFICATION_TYPE": "U", "NORAD_CAT_ID": 29818, "ELEMENT_SET_NO": 999, "REV_AT_EPOCH": 96942, "BSTAR": 0.00031623, "MEAN_MOTION_DOT": 4.93e-06, "MEAN_MOTION_DDOT": 0}, "tle": {"line1": "1 29818U 99025DL  25356.19549182  .00000493  00000+0  31623-3 0  9996", "line2": "2 29818  98.7207 233.1413 0114753 359.3512 124.3481 14.04507878969426"}}, "geometry": {"type": "Point", "coordinates": [60.619231244708615, 39.50330506051934]}}, {"type": "Feature", "properties": {"norad_id": 29819, "name": "FENGYUN 1C DEB", "group": "fengyun-1c-debris", "lat": 6.873327167294814, "lon": 160.81685455859017, "alt_km": 981.2253612091145, "timestamp": "2025-12-22T09:53:37.673175+00:00", "meta": {"OBJECT_NAME": "FENGYUN 1C DEB", "OBJECT_ID": "1999-025DM", "EPOCH": "2025-12-20T11:23:55.577184", "MEAN_MOTION": 14.0220801, "ECCENTRICITY": 0.0191497, "INCLINATION": 98.7336, "RA_OF_ASC_NODE": 337.8976, "ARG_OF_PERICENTER": 45.5254, "MEAN_ANOMALY": 71.8375, "EPHEMERIS_TYPE": 0, "CLASSIFICATION_TYPE": "U", "NORAD_CAT_ID": 29819, "ELEMENT_SET_NO": 999, "REV_AT_EPOCH": 96728, "BSTAR": 0.00031555206, "MEAN_MOTION_DOT": 5.26e-06, "MEAN_MOTION_DDOT": 0}, "tle": {"line1": "1 29819U 99025DM  25354.47494881  .00000526  00000+0  31555-3 0  9992", "line2": "2 29819  98.7336 337.8976 0191497  45.5254  71.8375 14.02208010967287"}}, "geometry": {"type": "Point", "coordinates": [160.81685455859017, 6.873327167294814]}}]}